{
"type": "FeatureCollection",
"name": "veersedag",
"crs": { "type": "name", "properties": { "name": "urn:ogc:def:crs:EPSG::28992" } },
"features": [
{ "type": "Feature", "properties": { "fid": 13, "marktkraamnummer": 4, "factuurnummer": "54", "huurder_naam": "Bart Vorstenbosch", "branche": "Eten en drinken", "heeft_eten": 1, "bakwijze": "Gas", "sponsor": 0, "vereniging": 0, "bijzonderheden": null, "Vak": "HV", "Grondplaats/Kraam": "G" }, "geometry": { "type": "Polygon", "coordinates": [ [ [ 119412.215361206108355, 412013.755223966261838 ], [ 119415.962568280738196, 412010.444978833256755 ], [ 119415.298506340142922, 412009.697301269741729 ], [ 119411.549810706157587, 412013.005820573773235 ], [ 119412.215361206108355, 412013.755223966261838 ] ] ] } },
{ "type": "Feature", "properties": { "fid": 14, "marktkraamnummer": 3, "factuurnummer": "11", "huurder_naam": "De Koeckenbakkers", "branche": "Eten en drinken", "heeft_eten": 1, "bakwijze": "Elektrisch", "sponsor": 0, "vereniging": 0, "bijzonderheden": null, "Vak": "HV", "Grondplaats/Kraam": "K" }, "geometry": { "type": "Polygon", "coordinates": [ [ [ 119417.400658563303296, 412009.222898442007136 ], [ 119420.391368817479815, 412006.566650679509621 ], [ 119419.727306876884541, 412005.818973115994595 ], [ 119416.736596622649813, 412008.475220878375694 ], [ 119417.400658563303296, 412009.222898442007136 ] ] ] } },
{ "type": "Feature", "properties": { "fid": 15, "marktkraamnummer": 1, "factuurnummer": "91", "huurder_naam": "Arendse health club", "branche": "Verzorging en gezondheid", "heeft_eten": 0, "bakwijze": "Niet van toepassing", "sponsor": 0, "vereniging": 0, "bijzonderheden": "ook flyeren en 1 meter grondplaats", "Vak": "HV", "Grondplaats/Kraam": "K" }, "geometry": { "type": "Polygon", "coordinates": [ [ [ 119427.859633842221228, 411999.627163945697248 ], [ 119430.850344096397748, 411996.970916183199733 ], [ 119430.186282155802473, 411996.223238619684707 ], [ 119427.195571901567746, 411998.879486382065807 ], [ 119427.859633842221228, 411999.627163945697248 ] ] ] } },
{ "type": "Feature", "properties": { "fid": 16, "marktkraamnummer": 2, "factuurnummer": "16", "huurder_naam": "De Rijdende IJssalon", "branche": "Eten en drinken", "heeft_eten": 1, "bakwijze": "Niet van toepassing", "sponsor": 0, "vereniging": 0, "bijzonderheden": "", "Vak": "HV", "Grondplaats/Kraam": "G" }, "geometry": { "type": "Polygon", "coordinates": [ [ [ 119421.52609087327437, 412005.536484798067249 ], [ 119426.666547317348886, 412000.785116146202199 ], [ 119425.986484032779117, 412000.051962731929962 ], [ 119420.772781686770031, 412004.720711288333405 ], [ 119421.52609087327437, 412005.536484798067249 ] ] ] } },
{ "type": "Feature", "properties": { "fid": 17, "marktkraamnummer": 5, "factuurnummer": "20", "huurder_naam": "Lekker van Janoe", "branche": "Eten en drinken", "heeft_eten": 1, "bakwijze": "Gas", "sponsor": 0, "vereniging": 0, "bijzonderheden": null, "Vak": "HV", "Grondplaats/Kraam": "G" }, "geometry": { "type": "Polygon", "coordinates": [ [ [ 119404.856342753002536, 412020.072574195452034 ], [ 119410.708059169308399, 412014.986375993816182 ], [ 119410.043997228713124, 412014.238698430301156 ], [ 119404.2620827939827, 412019.278142460680101 ], [ 119404.856342753002536, 412020.072574195452034 ] ] ] } },
{ "type": "Feature", "properties": { "fid": 18, "marktkraamnummer": 6, "factuurnummer": "43", "huurder_naam": "De John's Art", "branche": "Speelgoed en kinderen", "heeft_eten": 0, "bakwijze": "Niet van toepassing", "sponsor": 0, "vereniging": 0, "bijzonderheden": null, "Vak": "HV", "Grondplaats/Kraam": "K" }, "geometry": { "type": "Polygon", "coordinates": [ [ [ 119400.752076690434478, 412025.706409275415353 ], [ 119400.390049020759761, 412021.722825968055986 ], [ 119399.394153193963575, 412021.813332885503769 ], [ 119399.756180863521877, 412025.796916192863137 ], [ 119400.752076690434478, 412025.706409275415353 ] ] ] } },
{ "type": "Feature", "properties": { "fid": 19, "marktkraamnummer": 7, "factuurnummer": "74", "huurder_naam": "brandweer raamsdonksveer", "branche": "Diensten en informatie", "heeft_eten": 0, "bakwijze": "Niet van toepassing", "sponsor": 0, "vereniging": 0, "bijzonderheden": "2 brandweerwafens", "Vak": "HV", "Grondplaats/Kraam": "G" }, "geometry": { "type": "Polygon", "coordinates": [ [ [ 119392.905469533608994, 412011.331514843797777 ], [ 119391.458716143068159, 412007.602318599645514 ], [ 119390.526417082088301, 412007.964006947295275 ], [ 119391.97317047251272, 412011.693203191447537 ], [ 119392.905469533608994, 412011.331514843797777 ] ] ] } },
{ "type": "Feature", "properties": { "fid": 20, "marktkraamnummer": 26, "factuurnummer": "89", "huurder_naam": "Vital Nexus", "branche": "Sponsor of promotie", "heeft_eten": 0, "bakwijze": "Niet van toepassing", "sponsor": 0, "vereniging": 0, "bijzonderheden": null, "Vak": "GB", "Grondplaats/Kraam": "K" }, "geometry": { "type": "Polygon", "coordinates": [ [ [ 119390.647956293163588, 412028.020018424896989 ], [ 119393.15588428961928, 412031.13615339709213 ], [ 119393.934918032580754, 412030.509171397949103 ], [ 119391.42699003618327, 412027.393036425753962 ], [ 119390.647956293163588, 412028.020018424896989 ] ] ] } },
{ "type": "Feature", "properties": { "fid": 21, "marktkraamnummer": 25, "factuurnummer": "88", "huurder_naam": "Vital Nexus", "branche": "Sponsor of promotie", "heeft_eten": 0, "bakwijze": "Niet van toepassing", "sponsor": 0, "vereniging": 0, "bijzonderheden": null, "Vak": "GB", "Grondplaats/Kraam": "K" }, "geometry": { "type": "Polygon", "coordinates": [ [ [ 119393.250189376922208, 412031.32285272347508 ], [ 119395.7581173733779, 412034.438987695670221 ], [ 119396.537151116339373, 412033.812005696527194 ], [ 119394.029223119941889, 412030.695870724332053 ], [ 119393.250189376922208, 412031.32285272347508 ] ] ] } },
{ "type": "Feature", "properties": { "fid": 22, "marktkraamnummer": 1, "factuurnummer": "89", "huurder_naam": "De Smulkar Evenementenverzorging", "branche": "Eten en drinken", "heeft_eten": 1, "bakwijze": "Gas", "sponsor": 0, "vereniging": 0, "bijzonderheden": null, "Vak": "HPL", "Grondplaats/Kraam": "G" }, "geometry": { "type": "Polygon", "coordinates": [ [ [ 119469.130514130578376, 411927.634989818499889 ], [ 119472.104857008147519, 411924.960427340818569 ], [ 119471.436216388712637, 411924.216841621440835 ], [ 119468.461873511114391, 411926.891404099063948 ], [ 119469.130514130578376, 411927.634989818499889 ] ] ] } },
{ "type": "Feature", "properties": { "fid": 23, "marktkraamnummer": 2, "factuurnummer": "30", "huurder_naam": "De Smulkar Oriental Streetfood", "branche": "Eten en drinken", "heeft_eten": 1, "bakwijze": "Gas", "sponsor": 0, "vereniging": 0, "bijzonderheden": null, "Vak": "HPL", "Grondplaats/Kraam": "G" }, "geometry": { "type": "Polygon", "coordinates": [ [ [ 119483.464113045891281, 411916.752070384682156 ], [ 119486.069303845695686, 411919.787359645531978 ], [ 119486.828126160951797, 411919.136061945580877 ], [ 119484.222935361147393, 411916.100772684672847 ], [ 119483.464113045891281, 411916.752070384682156 ] ] ] } },
{ "type": "Feature", "properties": { "fid": 24, "marktkraamnummer": 3, "factuurnummer": "79", "huurder_naam": "T.H.B.LE", "branche": "Eten en drinken", "heeft_eten": 1, "bakwijze": "Elektrisch", "sponsor": 0, "vereniging": 0, "bijzonderheden": null, "Vak": "HPL", "Grondplaats/Kraam": "G" }, "geometry": { "type": "Polygon", "coordinates": [ [ [ 119490.198968658398371, 411924.126004971039947 ], [ 119492.922520836174954, 411927.055555027793162 ], [ 119493.654908350377809, 411926.374666983319912 ], [ 119490.931356172601227, 411923.445116926566698 ], [ 119490.198968658398371, 411924.126004971039947 ] ] ] } },
{ "type": "Feature", "properties": { "fid": 25, "marktkraamnummer": 25, "factuurnummer": "133", "huurder_naam": "exPRtease namens het ministerie van Infrastructuur en Waterstaat", "branche": "Sponsor of promotie", "heeft_eten": 0, "bakwijze": "Niet van toepassing", "sponsor": 0, "vereniging": 0, "bijzonderheden": null, "Vak": "HO", "Grondplaats/Kraam": "G" }, "geometry": { "type": "Polygon", "coordinates": [ [ [ 119491.217953220097115, 411974.852518997213338 ], [ 119493.694571357860696, 411977.993595659732819 ], [ 119492.895930096347001, 411978.595403050363529 ], [ 119490.48870053383871, 411975.400838004308753 ], [ 119491.217953220097115, 411974.852518997213338 ] ] ] } },
{ "type": "Feature", "properties": { "fid": 26, "marktkraamnummer": 24, "factuurnummer": "151", "huurder_naam": "BBV Hank", "branche": "Sponsor of promotie", "heeft_eten": 0, "bakwijze": "Niet van toepassing", "sponsor": 0, "vereniging": 0, "bijzonderheden": null, "Vak": "HO", "Grondplaats/Kraam": "G" }, "geometry": { "type": "Polygon", "coordinates": [ [ [ 119494.470744574791752, 411979.35638394986745 ], [ 119501.664417763080564, 411988.977139918250032 ], [ 119500.970545070143999, 411989.482842000899836 ], [ 119493.741491888533346, 411979.904702956962865 ], [ 119494.470744574791752, 411979.35638394986745 ] ] ] } },
{ "type": "Feature", "properties": { "fid": 27, "marktkraamnummer": 23, "factuurnummer": "49", "huurder_naam": "Veilig Verkeer Nederland", "branche": "Sponsor of promotie", "heeft_eten": 0, "bakwijze": "Niet van toepassing", "sponsor": 0, "vereniging": 0, "bijzonderheden": null, "Vak": "HO", "Grondplaats/Kraam": "K" }, "geometry": { "type": "Polygon", "coordinates": [ [ [ 119502.477615601717844, 411990.115616892289836 ], [ 119504.954233739481424, 411993.256693554809317 ], [ 119504.15559247796773, 411993.858500945440028 ], [ 119501.748362915459438, 411990.663935899385251 ], [ 119502.477615601717844, 411990.115616892289836 ] ] ] } },
{ "type": "Feature", "properties": { "fid": 28, "marktkraamnummer": 22, "factuurnummer": "152", "huurder_naam": "Ceulemans david", "branche": "Wonen en decoratie", "heeft_eten": 0, "bakwijze": "Niet van toepassing", "sponsor": 0, "vereniging": 0, "bijzonderheden": null, "Vak": "HO", "Grondplaats/Kraam": "G" }, "geometry": { "type": "Polygon", "coordinates": [ [ [ 119504.27916158278822, 411998.472788526676595 ], [ 119510.271804117015563, 412006.517191761580762 ], [ 119509.521159958239878, 412006.967578256851994 ], [ 119503.549908896529814, 411999.02110753377201 ], [ 119504.27916158278822, 411998.472788526676595 ] ] ] } },
{ "type": "Feature", "properties": { "fid": 29, "marktkraamnummer": 21, "factuurnummer": "121", "huurder_naam": "Lokaal+", "branche": "Vereniging of stichting", "heeft_eten": 0, "bakwijze": "Niet van toepassing", "sponsor": 0, "vereniging": 1, "bijzonderheden": null, "Vak": "HO", "Grondplaats/Kraam": "K" }, "geometry": { "type": "Polygon", "coordinates": [ [ [ 119511.88568905837019, 412008.264524553378578 ], [ 119514.36230719613377, 412011.405601215898059 ], [ 119513.563665934620076, 412012.00740860652877 ], [ 119511.156436372111784, 412008.812843560473993 ], [ 119511.88568905837019, 412008.264524553378578 ] ] ] } },
{ "type": "Feature", "properties": { "fid": 30, "marktkraamnummer": 20, "factuurnummer": "75", "huurder_naam": "Graffity", "branche": "Kunst en ambacht", "heeft_eten": 0, "bakwijze": "Niet van toepassing", "sponsor": 0, "vereniging": 0, "bijzonderheden": null, "Vak": "HO", "Grondplaats/Kraam": "K" }, "geometry": { "type": "Polygon", "coordinates": [ [ [ 119520.421142704828526, 412019.305799453810323 ], [ 119522.897760842592106, 412022.446876116329804 ], [ 119522.099119581078412, 412023.048683506960515 ], [ 119519.69189001857012, 412019.854118460905738 ], [ 119520.421142704828526, 412019.305799453810323 ] ] ] } },
{ "type": "Feature", "properties": { "fid": 31, "marktkraamnummer": 19, "factuurnummer": "35", "huurder_naam": "Trendz & Brandz", "branche": "Wonen en decoratie", "heeft_eten": 0, "bakwijze": "Niet van toepassing", "sponsor": 0, "vereniging": 0, "bijzonderheden": null, "Vak": "HO", "Grondplaats/Kraam": "K" }, "geometry": { "type": "Polygon", "coordinates": [ [ [ 119525.393631755752722, 412024.474055790225975 ], [ 119527.870249893516302, 412027.615132452745456 ], [ 119527.071608632002608, 412028.216939843376167 ], [ 119524.664379069494316, 412025.02237479732139 ], [ 119525.393631755752722, 412024.474055790225975 ] ] ] } },
{ "type": "Feature", "properties": { "fid": 32, "marktkraamnummer": 18, "factuurnummer": "2535", "huurder_naam": "By Mandy Fotografie / Angela's ", "branche": "Boeken en media", "heeft_eten": 0, "bakwijze": "Niet van toepassing", "sponsor": 0, "vereniging": 0, "bijzonderheden": null, "Vak": "HO", "Grondplaats/Kraam": "K" }, "geometry": { "type": "Polygon", "coordinates": [ [ [ 119529.930585006251931, 412029.670329942950048 ], [ 119532.925052564125508, 412032.322341263585258 ], [ 119532.24581288130139, 412033.056257780175656 ], [ 119529.310146814998006, 412030.339299048937391 ], [ 119529.930585006251931, 412029.670329942950048 ] ] ] } },
{ "type": "Feature", "properties": { "fid": 33, "marktkraamnummer": 17, "factuurnummer": "60", "huurder_naam": "SP", "branche": "Vereniging of stichting", "heeft_eten": 0, "bakwijze": "Niet van toepassing", "sponsor": 0, "vereniging": 1, "bijzonderheden": null, "Vak": "HO", "Grondplaats/Kraam": "K" }, "geometry": { "type": "Polygon", "coordinates": [ [ [ 119534.237465286569204, 412033.781442937790416 ], [ 119537.231932844442781, 412036.433454258425627 ], [ 119536.552693161618663, 412037.167370775016025 ], [ 119533.617027095315279, 412034.45041204377776 ], [ 119534.237465286569204, 412033.781442937790416 ] ] ] } },
{ "type": "Feature", "properties": { "fid": 34, "marktkraamnummer": 16, "factuurnummer": "157", "huurder_naam": "Shoeby", "branche": "Kleding en mode", "heeft_eten": 0, "bakwijze": "Niet van toepassing", "sponsor": 0, "vereniging": 0, "bijzonderheden": null, "Vak": "HO", "Grondplaats/Kraam": "K" }, "geometry": { "type": "Polygon", "coordinates": [ [ [ 119541.324241020556656, 412039.067159645492211 ], [ 119547.153236750003998, 412044.373217717395164 ], [ 119546.705190991648124, 412045.022396344982553 ], [ 119540.703802829302731, 412039.736128751479555 ], [ 119541.324241020556656, 412039.067159645492211 ] ] ] } },
{ "type": "Feature", "properties": { "fid": 35, "marktkraamnummer": 1, "factuurnummer": "66", "huurder_naam": "Goudfashion store", "branche": "Kleding en mode", "heeft_eten": 0, "bakwijze": "Niet van toepassing", "sponsor": 0, "vereniging": 0, "bijzonderheden": null, "Vak": "HO", "Grondplaats/Kraam": "G" }, "geometry": { "type": "Polygon", "coordinates": [ [ [ 119541.08457440440543, 412045.538158281531651 ], [ 119546.913570133852772, 412050.844216353434604 ], [ 119546.465524375496898, 412051.493394981021993 ], [ 119540.464136213151505, 412046.207127387518995 ], [ 119541.08457440440543, 412045.538158281531651 ] ] ] } },
{ "type": "Feature", "properties": { "fid": 36, "marktkraamnummer": 4, "factuurnummer": "113", "huurder_naam": "Jolly-Bijou.com", "branche": "Sieraden en accessoires", "heeft_eten": 0, "bakwijze": "Niet van toepassing", "sponsor": 0, "vereniging": 0, "bijzonderheden": null, "Vak": "HO", "Grondplaats/Kraam": "K" }, "geometry": { "type": "Polygon", "coordinates": [ [ [ 119526.867716839944478, 412033.601692975673359 ], [ 119529.862184397818055, 412036.25370429630857 ], [ 119529.182944714993937, 412036.987620812898967 ], [ 119526.247278648690553, 412034.270662081660703 ], [ 119526.867716839944478, 412033.601692975673359 ] ] ] } },
{ "type": "Feature", "properties": { "fid": 37, "marktkraamnummer": 2, "factuurnummer": "77", "huurder_naam": "Curve rebels", "branche": "Kleding en mode", "heeft_eten": 0, "bakwijze": "Niet van toepassing", "sponsor": 0, "vereniging": 0, "bijzonderheden": null, "Vak": "HO", "Grondplaats/Kraam": "G" }, "geometry": { "type": "Polygon", "coordinates": [ [ [ 119537.293214642486419, 412042.589191081293393 ], [ 119540.287682200359995, 412045.241202401928604 ], [ 119539.608442517535877, 412045.975118918519001 ], [ 119536.672776451232494, 412043.258160187280737 ], [ 119537.293214642486419, 412042.589191081293393 ] ] ] } },
{ "type": "Feature", "properties": { "fid": 38, "marktkraamnummer": 3, "factuurnummer": "87", "huurder_naam": "The Favorite Club", "branche": "Sieraden en accessoires", "heeft_eten": 0, "bakwijze": "Niet van toepassing", "sponsor": 0, "vereniging": 0, "bijzonderheden": null, "Vak": "HO", "Grondplaats/Kraam": "K" }, "geometry": { "type": "Polygon", "coordinates": [ [ [ 119532.320132357359398, 412038.574775260698516 ], [ 119535.314599915232975, 412041.226786581333727 ], [ 119534.635360232408857, 412041.960703097924124 ], [ 119531.699694166105473, 412039.24374436668586 ], [ 119532.320132357359398, 412038.574775260698516 ] ] ] } },
{ "type": "Feature", "properties": { "fid": 39, "marktkraamnummer": 5, "factuurnummer": "155", "huurder_naam": "Mexicaanse taco, bamboe sokken en suikerspin", "branche": "Eten en drinken", "heeft_eten": 1, "bakwijze": "Niet van toepassing", "sponsor": 0, "vereniging": 0, "bijzonderheden": null, "Vak": "HO", "Grondplaats/Kraam": "K" }, "geometry": { "type": "Polygon", "coordinates": [ [ [ 119522.793384365402744, 412030.126527041429654 ], [ 119525.787851923276321, 412032.778538362064864 ], [ 119525.108612240452203, 412033.512454878655262 ], [ 119522.172946174148819, 412030.795496147416998 ], [ 119522.793384365402744, 412030.126527041429654 ] ] ] } },
{ "type": "Feature", "properties": { "fid": 40, "marktkraamnummer": 6, "factuurnummer": "155", "huurder_naam": "Mexicaanse taco, bamboe sokken en suikerspin", "branche": "Eten en drinken", "heeft_eten": 1, "bakwijze": "Niet van toepassing", "sponsor": 0, "vereniging": 0, "bijzonderheden": null, "Vak": "HO", "Grondplaats/Kraam": "G" }, "geometry": { "type": "Polygon", "coordinates": [ [ [ 119519.428747800091514, 412026.001930765050929 ], [ 119521.953469340718584, 412029.104475066415034 ], [ 119521.16419547375699, 412029.718516402994283 ], [ 119518.708030127643724, 412026.561420935264323 ], [ 119519.428747800091514, 412026.001930765050929 ] ] ] } },
{ "type": "Feature", "properties": { "fid": 41, "marktkraamnummer": 7, "factuurnummer": "47", "huurder_naam": "Energetixshop by AB-Wellness", "branche": "Verzorging en gezondheid", "heeft_eten": 0, "bakwijze": "Niet van toepassing", "sponsor": 0, "vereniging": 0, "bijzonderheden": null, "Vak": "HO", "Grondplaats/Kraam": "K" }, "geometry": { "type": "Polygon", "coordinates": [ [ [ 119517.261709424084984, 412025.297101216448937 ], [ 119514.747001515279408, 412022.186435028386768 ], [ 119515.538250538273132, 412021.574940969818272 ], [ 119517.984226772459806, 412024.739937061734963 ], [ 119517.261709424084984, 412025.297101216448937 ] ] ] } },
{ "type": "Feature", "properties": { "fid": 42, "marktkraamnummer": 8, "factuurnummer": "84", "huurder_naam": "Smokestag", "branche": "Eten en drinken", "heeft_eten": 1, "bakwijze": "Kolen", "sponsor": 0, "vereniging": 0, "bijzonderheden": null, "Vak": "HO", "Grondplaats/Kraam": "G" }, "geometry": { "type": "Polygon", "coordinates": [ [ [ 119510.880515782162547, 412025.346787844900973 ], [ 119504.47626513481373, 412030.250387773383409 ], [ 119503.931346303681494, 412029.393049512291327 ], [ 119510.343109704204835, 412024.609456222504377 ], [ 119510.880515782162547, 412025.346787844900973 ] ] ] } },
{ "type": "Feature", "properties": { "fid": 43, "marktkraamnummer": 9, "factuurnummer": "78", "huurder_naam": "MeatCuisine BV.", "branche": "Eten en drinken", "heeft_eten": 1, "bakwijze": "Niet van toepassing", "sponsor": 0, "vereniging": 0, "bijzonderheden": null, "Vak": "HO", "Grondplaats/Kraam": "K" }, "geometry": { "type": "Polygon", "coordinates": [ [ [ 119505.098628654464846, 412009.299354588438291 ], [ 119502.58392074565927, 412006.188688400376122 ], [ 119503.375169768652995, 412005.577194341807626 ], [ 119505.821146002839669, 412008.742190433724318 ], [ 119505.098628654464846, 412009.299354588438291 ] ] ] } },
{ "type": "Feature", "properties": { "fid": 44, "marktkraamnummer": 10, "factuurnummer": "14", "huurder_naam": "Sans fashion", "branche": "Kleding en mode", "heeft_eten": 0, "bakwijze": "Niet van toepassing", "sponsor": 0, "vereniging": 0, "bijzonderheden": null, "Vak": "HO", "Grondplaats/Kraam": "K" }, "geometry": { "type": "Polygon", "coordinates": [ [ [ 119501.743296028347686, 412004.685772227530833 ], [ 119499.22858811954211, 412001.575106039468665 ], [ 119500.019837142535835, 412000.963611980900168 ], [ 119502.465813376722508, 412004.12860807281686 ], [ 119501.743296028347686, 412004.685772227530833 ] ] ] } },
{ "type": "Feature", "properties": { "fid": 45, "marktkraamnummer": 11, "factuurnummer": "14", "huurder_naam": "Sans fashion", "branche": "Kleding en mode", "heeft_eten": 0, "bakwijze": "Niet van toepassing", "sponsor": 0, "vereniging": 0, "bijzonderheden": null, "Vak": "HO", "Grondplaats/Kraam": "K" }, "geometry": { "type": "Polygon", "coordinates": [ [ [ 119498.80737998051336, 412000.911023023130838 ], [ 119496.292672071707784, 411997.800356835068669 ], [ 119497.083921094701509, 411997.188862776500173 ], [ 119499.529897328888183, 412000.353858868416864 ], [ 119498.80737998051336, 412000.911023023130838 ] ] ] } },
{ "type": "Feature", "properties": { "fid": 46, "marktkraamnummer": 12, "factuurnummer": "33", "huurder_naam": "Hip bij Yvonne", "branche": "Sieraden en accessoires", "heeft_eten": 0, "bakwijze": "Niet van toepassing", "sponsor": 0, "vereniging": 0, "bijzonderheden": null, "Vak": "HO", "Grondplaats/Kraam": "K" }, "geometry": { "type": "Polygon", "coordinates": [ [ [ 119495.811547278630314, 411996.417273970320821 ], [ 119493.296839369824738, 411993.306607782258652 ], [ 119494.088088392818463, 411992.695113723690156 ], [ 119496.534064627005137, 411995.860109815606847 ], [ 119495.811547278630314, 411996.417273970320821 ] ] ] } },
{ "type": "Feature", "properties": { "fid": 47, "marktkraamnummer": 13, "factuurnummer": "33", "huurder_naam": "Hip bij Yvonne", "branche": "Sieraden en accessoires", "heeft_eten": 0, "bakwijze": "Niet van toepassing", "sponsor": 0, "vereniging": 0, "bijzonderheden": null, "Vak": "HO", "Grondplaats/Kraam": "K" }, "geometry": { "type": "Polygon", "coordinates": [ [ [ 119493.235131155015551, 411992.642524765979033 ], [ 119490.720423246209975, 411989.531858577916864 ], [ 119491.5116722692037, 411988.920364519348368 ], [ 119493.957648503390374, 411992.08536061126506 ], [ 119493.235131155015551, 411992.642524765979033 ] ] ] } },
{ "type": "Feature", "properties": { "fid": 48, "marktkraamnummer": 14, "factuurnummer": "115", "huurder_naam": "Van der Plaat", "branche": "Speelgoed en kinderen", "heeft_eten": 0, "bakwijze": "Niet van toepassing", "sponsor": 0, "vereniging": 0, "bijzonderheden": null, "Vak": "HO", "Grondplaats/Kraam": "K" }, "geometry": { "type": "Polygon", "coordinates": [ [ [ 119489.939715182947111, 411987.429775864700787 ], [ 119487.425007274141535, 411984.319109676638618 ], [ 119488.21625629713526, 411983.707615618070122 ], [ 119490.662232531321933, 411986.872611709986813 ], [ 119489.939715182947111, 411987.429775864700787 ] ] ] } },
{ "type": "Feature", "properties": { "fid": 49, "marktkraamnummer": 2, "factuurnummer": "50", "huurder_naam": "Electro World Thijssen", "branche": "Overig", "heeft_eten": 0, "bakwijze": "Geen bereiding op locatie", "sponsor": 0, "vereniging": 0, "bijzonderheden": null, "Vak": "PB", "Grondplaats/Kraam": "K" }, "geometry": { "type": "Polygon", "coordinates": [ [ [ 119593.877165454090573, 411909.321559844829608 ], [ 119597.110245462623425, 411906.966311735101044 ], [ 119596.521433435147628, 411906.158041732967831 ], [ 119593.288353426614776, 411908.513289842638187 ], [ 119593.877165454090573, 411909.321559844829608 ] ] ] } },
{ "type": "Feature", "properties": { "fid": 50, "marktkraamnummer": 3, "factuurnummer": "24", "huurder_naam": "Huisvoldeco / Anjas-Personal-Gifts", "branche": "Wonen en decoratie", "heeft_eten": 0, "bakwijze": "Geen bereiding op locatie", "sponsor": 0, "vereniging": 0, "bijzonderheden": null, "Vak": "PB", "Grondplaats/Kraam": "K" }, "geometry": { "type": "Polygon", "coordinates": [ [ [ 119577.99335837077524, 411929.632407228637021 ], [ 119578.591009018986369, 411925.677307520236354 ], [ 119577.602234091827995, 411925.527894858270884 ], [ 119577.004583443675074, 411929.482994566555135 ], [ 119577.99335837077524, 411929.632407228637021 ] ] ] } },
{ "type": "Feature", "properties": { "fid": 51, "marktkraamnummer": 4, "factuurnummer": "59", "huurder_naam": "The Company lifestyle", "branche": "Wonen en decoratie", "heeft_eten": 0, "bakwijze": "Geen bereiding op locatie", "sponsor": 0, "vereniging": 0, "bijzonderheden": null, "Vak": "PB", "Grondplaats/Kraam": "K" }, "geometry": { "type": "Polygon", "coordinates": [ [ [ 119576.543233103002422, 411934.773760450771078 ], [ 119577.140883751213551, 411930.818660742370412 ], [ 119576.152108824055176, 411930.669248080404941 ], [ 119575.554458175902255, 411934.624347788689192 ], [ 119576.543233103002422, 411934.773760450771078 ] ] ] } },
{ "type": "Feature", "properties": { "fid": 52, "marktkraamnummer": 5, "factuurnummer": "94", "huurder_naam": "Samia Fashion", "branche": "Kleding en mode", "heeft_eten": 0, "bakwijze": "Geen bereiding op locatie", "sponsor": 0, "vereniging": 0, "bijzonderheden": null, "Vak": "PB", "Grondplaats/Kraam": "G" }, "geometry": { "type": "Polygon", "coordinates": [ [ [ 119574.523543029747088, 411948.300963362271432 ], [ 119576.218076762626879, 411936.421417458797805 ], [ 119575.229301835468505, 411936.272004796832334 ], [ 119573.446649244637229, 411948.138853388605639 ], [ 119574.523543029747088, 411948.300963362271432 ] ] ] } },
{ "type": "Feature", "properties": { "fid": 53, "marktkraamnummer": 6, "factuurnummer": "82", "huurder_naam": "aidsweeskinderen", "branche": "Vereniging of stichting", "heeft_eten": 0, "bakwijze": "Geen bereiding op locatie", "sponsor": 0, "vereniging": 1, "bijzonderheden": null, "Vak": "PB", "Grondplaats/Kraam": "K" }, "geometry": { "type": "Polygon", "coordinates": [ [ [ 119573.445238212763797, 411954.94368462980492 ], [ 119574.042888860974927, 411950.988584921404254 ], [ 119573.054113933816552, 411950.839172259438783 ], [ 119572.456463285663631, 411954.794271967723034 ], [ 119573.445238212763797, 411954.94368462980492 ] ] ] } },
{ "type": "Feature", "properties": { "fid": 54, "marktkraamnummer": 7, "factuurnummer": "82", "huurder_naam": "aidsweeskinderen", "branche": "Vereniging of stichting", "heeft_eten": 0, "bakwijze": "Geen bereiding op locatie", "sponsor": 0, "vereniging": 1, "bijzonderheden": null, "Vak": "PB", "Grondplaats/Kraam": "K" }, "geometry": { "type": "Polygon", "coordinates": [ [ [ 119572.720175578884664, 411959.623634357587434 ], [ 119573.317826227095793, 411955.668534649186768 ], [ 119572.329051299937419, 411955.519121987221297 ], [ 119571.731400651784497, 411959.474221695505548 ], [ 119572.720175578884664, 411959.623634357587434 ] ] ] } },
{ "type": "Feature", "properties": { "fid": 55, "marktkraamnummer": 8, "factuurnummer": "", "huurder_naam": "Villa LanterFant", "branche": "Vereniging of stichting", "heeft_eten": 0, "bakwijze": "Geen bereiding op locatie", "sponsor": 0, "vereniging": 1, "bijzonderheden": null, "Vak": "PB", "Grondplaats/Kraam": "K" }, "geometry": { "type": "Polygon", "coordinates": [ [ [ 119571.13822074131167, 411968.390300749102607 ], [ 119571.735871389522799, 411964.435201040701941 ], [ 119570.747096462364425, 411964.28578837873647 ], [ 119570.149445814211504, 411968.240888087020721 ], [ 119571.13822074131167, 411968.390300749102607 ] ] ] } },
{ "type": "Feature", "properties": { "fid": 56, "marktkraamnummer": 9, "factuurnummer": "70", "huurder_naam": "Fleurig en Mooi / Liefs Maartje", "branche": "Bloemen en planten", "heeft_eten": 0, "bakwijze": "Geen bereiding op locatie", "sponsor": 0, "vereniging": 0, "bijzonderheden": null, "Vak": "PB", "Grondplaats/Kraam": "K" }, "geometry": { "type": "Polygon", "coordinates": [ [ [ 119570.347243322525173, 411973.663483541051392 ], [ 119570.944893970736302, 411969.708383832650725 ], [ 119569.956119043577928, 411969.558971170685254 ], [ 119569.358468395425007, 411973.514070878969505 ], [ 119570.347243322525173, 411973.663483541051392 ] ] ] } },
{ "type": "Feature", "properties": { "fid": 57, "marktkraamnummer": 10, "factuurnummer": "93", "huurder_naam": "Bij Tries Thuis", "branche": "Wonen en decoratie", "heeft_eten": 0, "bakwijze": "Geen bereiding op locatie", "sponsor": 0, "vereniging": 0, "bijzonderheden": null, "Vak": "PB", "Grondplaats/Kraam": "K" }, "geometry": { "type": "Polygon", "coordinates": [ [ [ 119569.490351118845865, 411979.002581117849331 ], [ 119570.088001767056994, 411975.047481409448665 ], [ 119569.09922683989862, 411974.898068747483194 ], [ 119568.501576191745698, 411978.853168455767445 ], [ 119569.490351118845865, 411979.002581117849331 ] ] ] } },
{ "type": "Feature", "properties": { "fid": 58, "marktkraamnummer": 11, "factuurnummer": "93", "huurder_naam": "Bij Tries Thuis", "branche": "Wonen en decoratie", "heeft_eten": 0, "bakwijze": "Geen bereiding op locatie", "sponsor": 0, "vereniging": 0, "bijzonderheden": null, "Vak": "PB", "Grondplaats/Kraam": "K" }, "geometry": { "type": "Polygon", "coordinates": [ [ [ 119568.699373700059368, 411984.012104770110454 ], [ 119569.297024348270497, 411980.057005061709788 ], [ 119568.308249421112123, 411979.907592399744317 ], [ 119567.710598772959202, 411983.862692108028568 ], [ 119568.699373700059368, 411984.012104770110454 ] ] ] } },
{ "type": "Feature", "properties": { "fid": 59, "marktkraamnummer": 12, "factuurnummer": "65", "huurder_naam": "Baby garage", "branche": "Speelgoed en kinderen", "heeft_eten": 0, "bakwijze": "Geen bereiding op locatie", "sponsor": 0, "vereniging": 0, "bijzonderheden": null, "Vak": "PB", "Grondplaats/Kraam": "K" }, "geometry": { "type": "Polygon", "coordinates": [ [ [ 119567.90839628125832, 411988.889798852673266 ], [ 119568.506046929469449, 411984.934699144272599 ], [ 119567.517272002311074, 411984.785286482307129 ], [ 119566.919621354158153, 411988.74038619059138 ], [ 119567.90839628125832, 411988.889798852673266 ] ] ] } },
{ "type": "Feature", "properties": { "fid": 60, "marktkraamnummer": 13, "factuurnummer": "65", "huurder_naam": "Baby garage", "branche": "Speelgoed en kinderen", "heeft_eten": 0, "bakwijze": "Geen bereiding op locatie", "sponsor": 0, "vereniging": 0, "bijzonderheden": null, "Vak": "PB", "Grondplaats/Kraam": "K" }, "geometry": { "type": "Polygon", "coordinates": [ [ [ 119567.117418862471823, 411993.899322504992597 ], [ 119567.715069510682952, 411989.94422279659193 ], [ 119566.726294583524577, 411989.794810134626459 ], [ 119566.128643935371656, 411993.749909842910711 ], [ 119567.117418862471823, 411993.899322504992597 ] ] ] } },
{ "type": "Feature", "properties": { "fid": 61, "marktkraamnummer": 14, "factuurnummer": "103", "huurder_naam": "Kaik oep 't Fer", "branche": "Overig", "heeft_eten": 0, "bakwijze": "Geen bereiding op locatie", "sponsor": 0, "vereniging": 0, "bijzonderheden": null, "Vak": "PB", "Grondplaats/Kraam": "K" }, "geometry": { "type": "Polygon", "coordinates": [ [ [ 119566.194611873885151, 411999.436164436512627 ], [ 119566.79226252209628, 411995.48106472811196 ], [ 119565.803487594937906, 411995.331652066146489 ], [ 119565.205836946784984, 411999.286751774430741 ], [ 119566.194611873885151, 411999.436164436512627 ] ] ] } },
{ "type": "Feature", "properties": { "fid": 62, "marktkraamnummer": 15, "factuurnummer": "55", "huurder_naam": "Droomhoesjes", "branche": "Overig", "heeft_eten": 0, "bakwijze": "Geen bereiding op locatie", "sponsor": 0, "vereniging": 0, "bijzonderheden": null, "Vak": "PB", "Grondplaats/Kraam": "G" }, "geometry": { "type": "Polygon", "coordinates": [ [ [ 119563.483677093303413, 412015.881546578602865 ], [ 119565.935370318416972, 412001.083821444481146 ], [ 119564.946595391258597, 412000.934408782515675 ], [ 119562.571174419659656, 412015.744900361984037 ], [ 119563.483677093303413, 412015.881546578602865 ] ] ] } },
{ "type": "Feature", "properties": { "fid": 63, "marktkraamnummer": 16, "factuurnummer": "46", "huurder_naam": "ERA", "branche": "Overig", "heeft_eten": 0, "bakwijze": "Geen bereiding op locatie", "sponsor": 0, "vereniging": 0, "bijzonderheden": null, "Vak": "PB", "Grondplaats/Kraam": "K" }, "geometry": { "type": "Polygon", "coordinates": [ [ [ 119562.701128274246003, 412021.517617377568968 ], [ 119563.298778922457132, 412017.562517669168301 ], [ 119562.310003995298757, 412017.41310500720283 ], [ 119561.712353347145836, 412021.368204715487082 ], [ 119562.701128274246003, 412021.517617377568968 ] ] ] } },
{ "type": "Feature", "properties": { "fid": 64, "marktkraamnummer": 17, "factuurnummer": "46", "huurder_naam": "Vis&Wildrokerij Kloet", "branche": "Eten en drinken", "heeft_eten": 1, "bakwijze": "Hout", "sponsor": 0, "vereniging": 0, "bijzonderheden": null, "Vak": "PB", "Grondplaats/Kraam": "K" }, "geometry": { "type": "Polygon", "coordinates": [ [ [ 119561.712406500766519, 412026.790800169459544 ], [ 119562.310057148977648, 412022.835700461058877 ], [ 119561.321282221819274, 412022.686287799093407 ], [ 119560.723631573666353, 412026.641387507377658 ], [ 119561.712406500766519, 412026.790800169459544 ] ] ] } },
{ "type": "Feature", "properties": { "fid": 65, "marktkraamnummer": 18, "factuurnummer": "46", "huurder_naam": "Ahmad Almasri", "branche": "Eten en drinken", "heeft_eten": 1, "bakwijze": "Niet van toepassing", "sponsor": 0, "vereniging": 0, "bijzonderheden": null, "Vak": "PB", "Grondplaats/Kraam": "G" }, "geometry": { "type": "Polygon", "coordinates": [ [ [ 119560.262281232993701, 412034.239170862943865 ], [ 119560.85993188120483, 412030.284071154543199 ], [ 119559.871156954046455, 412030.134658492577728 ], [ 119559.273506305893534, 412034.089758200861979 ], [ 119560.262281232993701, 412034.239170862943865 ] ] ] } },
{ "type": "Feature", "properties": { "fid": 66, "marktkraamnummer": 19, "factuurnummer": "13", "huurder_naam": "Cookies Delight (Maxime)", "branche": "Eten en drinken", "heeft_eten": 1, "bakwijze": "Elektrisch", "sponsor": 0, "vereniging": 0, "bijzonderheden": null, "Vak": "PB", "Grondplaats/Kraam": "G" }, "geometry": { "type": "Polygon", "coordinates": [ [ [ 119558.318317304569064, 412043.130576254043262 ], [ 119559.409806613446563, 412036.216401795449201 ], [ 119558.421031686288188, 412036.06698913348373 ], [ 119557.429859495299752, 412042.996166983852163 ], [ 119558.318317304569064, 412043.130576254043262 ] ] ] } },
{ "type": "Feature", "properties": { "fid": 67, "marktkraamnummer": 20, "factuurnummer": "149", "huurder_naam": "CV De Faant", "branche": "Vereniging of stichting", "heeft_eten": 0, "bakwijze": "Geen bereiding op locatie", "sponsor": 0, "vereniging": 1, "bijzonderheden": null, "Vak": "PB", "Grondplaats/Kraam": "K" }, "geometry": { "type": "Polygon", "coordinates": [ [ [ 119556.636968063554377, 412053.552202838356607 ], [ 119557.234618711765506, 412049.59710312995594 ], [ 119556.245843784607132, 412049.447690467990469 ], [ 119555.648193136454211, 412053.402790176274721 ], [ 119556.636968063554377, 412053.552202838356607 ] ] ] } }
]
}
