{"type":"FeatureCollection","features":[{"type":"Feature","properties":{"fid":13,"marktkraamnummer":4,"factuurnummer":"54","huurder_naam":"Bart Vorstenbosch","branche":"Eten en drinken","heeft_eten":1,"bakwijze":"Gas","sponsor":0,"vereniging":0,"bijzonderheden":null,"Vak":"HV","Grondplaats/Kraam":"G"},"geometry":{"type":"Polygon","coordinates":[[[4.872459932933539,51.69576572117721],[4.872514468942887,51.69573620617006],[4.872504940774302,51.695729443702675],[4.8724503834137085,51.69575894309872],[4.872459932933539,51.69576572117721]]]}},{"type":"Feature","properties":{"fid":14,"marktkraamnummer":3,"factuurnummer":"11","huurder_naam":"De Koeckenbakkers","branche":"Eten en drinken","heeft_eten":1,"bakwijze":"Elektrisch","sponsor":0,"vereniging":0,"bijzonderheden":null,"Vak":"HV","Grondplaats/Kraam":"K"},"geometry":{"type":"Polygon","coordinates":[[[4.872535393626772,51.69572531325187],[4.872578921139416,51.695701628401736],[4.87256939296844,51.69569486593961],[4.872525865457338,51.695718550786154],[4.872535393626772,51.69572531325187]]]}},{"type":"Feature","properties":{"fid":15,"marktkraamnummer":1,"factuurnummer":"91","huurder_naam":"Arendse health club","branche":"Verzorging en gezondheid","heeft_eten":0,"bakwijze":"Niet van toepassing","sponsor":0,"vereniging":0,"bijzonderheden":"ook flyeren en 1 meter grondplaats","Vak":"HV","Grondplaats/Kraam":"K"},"geometry":{"type":"Polygon","coordinates":[[[4.872687647177864,51.695639729387],[4.8727311745284565,51.695616044479884],[4.872721646352657,51.69560928203007],[4.872678119003607,51.69563296693363],[4.872687647177864,51.695639729387]]]}},{"type":"Feature","properties":{"fid":16,"marktkraamnummer":2,"factuurnummer":"16","huurder_naam":"De Rijdende IJssalon","branche":"Eten en drinken","heeft_eten":1,"bakwijze":"Niet van toepassing","sponsor":0,"vereniging":0,"bijzonderheden":"","Vak":"HV","Grondplaats/Kraam":"G"},"geometry":{"type":"Polygon","coordinates":[[[4.872595438428112,51.69569244116331],[4.872670272715682,51.695650061499386],[4.872660511623198,51.695643428574],[4.872584626397702,51.695685060972664],[4.872595438428112,51.69569244116331]]]}},{"type":"Feature","properties":{"fid":17,"marktkraamnummer":5,"factuurnummer":"20","huurder_naam":"Lekker van Janoe","branche":"Eten en drinken","heeft_eten":1,"bakwijze":"Gas","sponsor":0,"vereniging":0,"bijzonderheden":null,"Vak":"HV","Grondplaats/Kraam":"G"},"geometry":{"type":"Polygon","coordinates":[[[4.872352849998371,51.69582203503948],[4.872438006244188,51.695776691220956],[4.872428478078547,51.69576992874738],[4.872344336196622,51.69581485676027],[4.872352849998371,51.69582203503948]]]}},{"type":"Feature","properties":{"fid":18,"marktkraamnummer":6,"factuurnummer":"43","huurder_naam":"De John's Art","branche":"Speelgoed en kinderen","heeft_eten":0,"bakwijze":"Niet van toepassing","sponsor":0,"vereniging":0,"bijzonderheden":null,"Vak":"HV","Grondplaats/Kraam":"K"},"geometry":{"type":"Polygon","coordinates":[[[4.872292911776951,51.69587241214937],[4.872288083096331,51.69583658391688],[4.8722736697271305,51.695837334100425],[4.8722784983964065,51.69587316233349],[4.872292911776951,51.69587241214937]]]}},{"type":"Feature","properties":{"fid":19,"marktkraamnummer":7,"factuurnummer":"74","huurder_naam":"brandweer raamsdonksveer","branche":"Diensten en informatie","heeft_eten":0,"bakwijze":"Niet van toepassing","sponsor":0,"vereniging":0,"bijzonderheden":"2 brandweerwafens","Vak":"HV","Grondplaats/Kraam":"G"},"geometry":{"type":"Polygon","coordinates":[[[4.872180893296286,51.69574270895413],[4.872160349835121,51.69570909822465],[4.8721468285839205,51.6957122898677],[4.8721673720364675,51.695745900599526],[4.872180893296286,51.69574270895413]]]}},{"type":"Feature","properties":{"fid":20,"marktkraamnummer":26,"factuurnummer":"89","huurder_naam":"Vital Nexus","branche":"Sponsor of promotie","heeft_eten":0,"bakwijze":"Niet van toepassing","sponsor":0,"vereniging":0,"bijzonderheden":null,"Vak":"GB","Grondplaats/Kraam":"K"},"geometry":{"type":"Polygon","coordinates":[[[4.872146534273904,51.695892564909954],[4.872182488832171,51.69592073280196],[4.872193820533982,51.69591514689935],[4.872157865973078,51.695886979010844],[4.872146534273904,51.695892564909954]]]}},{"type":"Feature","properties":{"fid":21,"marktkraamnummer":25,"factuurnummer":"88","huurder_naam":"Vital Nexus","branche":"Sponsor of promotie","heeft_eten":0,"bakwijze":"Niet van toepassing","sponsor":0,"vereniging":0,"bijzonderheden":null,"Vak":"GB","Grondplaats/Kraam":"K"},"geometry":{"type":"Polygon","coordinates":[[[4.872183833711316,51.695922416887846],[4.872219788316517,51.69595058476833],[4.872231120021227,51.69594499886221],[4.872195165413387,51.69591683098514],[4.872183833711316,51.695922416887846]]]}},{"type":"Feature","properties":{"fid":22,"marktkraamnummer":1,"factuurnummer":"89","huurder_naam":"De Smulkar Evenementenverzorging","branche":"Eten en drinken","heeft_eten":1,"bakwijze":"Gas","sponsor":0,"vereniging":0,"bijzonderheden":null,"Vak":"HPL","Grondplaats/Kraam":"G"},"geometry":{"type":"Polygon","coordinates":[[[4.873291914844641,51.69499526969991],[4.873335206403277,51.69497141891081],[4.873325611632414,51.69496469299753],[4.873282320075181,51.694988543783104],[4.873291914844641,51.69499526969991]]]}},{"type":"Feature","properties":{"fid":23,"marktkraamnummer":2,"factuurnummer":"30","huurder_naam":"De Smulkar Oriental Streetfood","branche":"Eten en drinken","heeft_eten":1,"bakwijze":"Gas","sponsor":0,"vereniging":0,"bijzonderheden":null,"Vak":"HPL","Grondplaats/Kraam":"G"},"geometry":{"type":"Polygon","coordinates":[[[4.873500335231552,51.694898361112024],[4.873537704825693,51.69492580810215],[4.873548746270591,51.69492000223132],[4.873511376674521,51.694892555244685],[4.873500335231552,51.694898361112024]]]}},{"type":"Feature","properties":{"fid":24,"marktkraamnummer":3,"factuurnummer":"79","huurder_naam":"T.H.B.LE","branche":"Eten en drinken","heeft_eten":1,"bakwijze":"Elektrisch","sponsor":0,"vereniging":0,"bijzonderheden":null,"Vak":"HPL","Grondplaats/Kraam":"G"},"geometry":{"type":"Polygon","coordinates":[[[4.87359699023999,51.694965066566276],[4.873636082620571,51.69499157062537],[4.873646744755975,51.694985497105456],[4.8736076523743685,51.694958993049944],[4.87359699023999,51.694965066566276]]]}},{"type":"Feature","properties":{"fid":25,"marktkraamnummer":25,"factuurnummer":"133","huurder_naam":"exPRtease namens het ministerie van Infrastructuur en Waterstaat","branche":"Sponsor of promotie","heeft_eten":0,"bakwijze":"Niet van toepassing","sponsor":0,"vereniging":0,"bijzonderheden":null,"Vak":"HO","Grondplaats/Kraam":"G"},"geometry":{"type":"Polygon","coordinates":[[[4.873606552366097,51.69542107101848],[4.873642052071302,51.69544946065999],[4.873630439642785,51.695454819185834],[4.873595948989027,51.69542595317663],[4.873606552366097,51.69542107101848]]]}},{"type":"Feature","properties":{"fid":26,"marktkraamnummer":24,"factuurnummer":"151","huurder_naam":"BBV Hank","branche":"Sponsor of promotie","heeft_eten":0,"bakwijze":"Niet van toepassing","sponsor":0,"vereniging":0,"bijzonderheden":null,"Vak":"HO","Grondplaats/Kraam":"G"},"geometry":{"type":"Polygon","coordinates":[[[4.873653139101156,51.69546175887874],[4.873756202406617,51.69554868815933],[4.873746115077199,51.69555318952439],[4.873642535719548,51.69546664104109],[4.873653139101156,51.69546175887874]]]}},{"type":"Feature","properties":{"fid":27,"marktkraamnummer":23,"factuurnummer":"49","huurder_naam":"Veilig Verkeer Nederland","branche":"Sponsor of promotie","heeft_eten":0,"bakwijze":"Niet van toepassing","sponsor":0,"vereniging":0,"bijzonderheden":null,"Vak":"HO","Grondplaats/Kraam":"K"},"geometry":{"type":"Polygon","coordinates":[[[4.873767847872904,51.69555897256013],[4.873803347787455,51.695587362152594],[4.873791735342528,51.69559272069434],[4.873757244480814,51.69556385473279],[4.873767847872904,51.69555897256013]]]}},{"type":"Feature","properties":{"fid":28,"marktkraamnummer":22,"factuurnummer":"152","huurder_naam":"Ceulemans david","branche":"Wonen en decoratie","heeft_eten":0,"bakwijze":"Niet van toepassing","sponsor":0,"vereniging":0,"bijzonderheden":null,"Vak":"HO","Grondplaats/Kraam":"G"},"geometry":{"type":"Polygon","coordinates":[[[4.87379305193697,51.695634202646254],[4.873878905625977,51.695706887123784],[4.8738680028041586,51.69571088771412],[4.8737824485299255,51.69563908482111],[4.87379305193697,51.695634202646254]]]}},{"type":"Feature","properties":{"fid":29,"marktkraamnummer":21,"factuurnummer":"121","huurder_naam":"Lokaal+","branche":"Vereniging of stichting","heeft_eten":0,"bakwijze":"Niet van toepassing","sponsor":0,"vereniging":1,"bijzonderheden":null,"Vak":"HO","Grondplaats/Kraam":"K"},"geometry":{"type":"Polygon","coordinates":[[[4.8739020697601365,51.69572269476832],[4.873937569887221,51.695751084319916],[4.873925957416048,51.69575644287486],[4.873891466344048,51.695727576953054],[4.8739020697601365,51.69572269476832]]]}},{"type":"Feature","properties":{"fid":30,"marktkraamnummer":20,"factuurnummer":"75","huurder_naam":"Graffity","branche":"Kunst en ambacht","heeft_eten":0,"bakwijze":"Niet van toepassing","sponsor":0,"vereniging":0,"bijzonderheden":null,"Vak":"HO","Grondplaats/Kraam":"K"},"geometry":{"type":"Polygon","coordinates":[[[4.874024396111827,51.6958224767423],[4.874059896393926,51.69585086625674],[4.874048283911541,51.69585622482375],[4.874013792685475,51.695827358938004],[4.874024396111827,51.6958224767423]]]}},{"type":"Feature","properties":{"fid":31,"marktkraamnummer":19,"factuurnummer":"35","huurder_naam":"Trendz & Brandz","branche":"Wonen en decoratie","heeft_eten":0,"bakwijze":"Niet van toepassing","sponsor":0,"vereniging":0,"bijzonderheden":null,"Vak":"HO","Grondplaats/Kraam":"K"},"geometry":{"type":"Polygon","coordinates":[[[4.874095788728726,51.69586924505581],[4.874131289092316,51.6958976345486],[4.874119676606338,51.695902993122644],[4.874085185299074,51.69587412725797],[4.874095788728726,51.69586924505581]]]}},{"type":"Feature","properties":{"fid":32,"marktkraamnummer":18,"factuurnummer":"2535","huurder_naam":"By Mandy Fotografie / Angela's ","branche":"Boeken en media","heeft_eten":0,"bakwijze":"Niet van toepassing","sponsor":0,"vereniging":0,"bijzonderheden":null,"Vak":"HO","Grondplaats/Kraam":"K"},"geometry":{"type":"Polygon","coordinates":[[[4.874160879265544,51.6959162375692],[4.874203919469515,51.69594026402469],[4.874194020482942,51.69594681759089],[4.874151837373263,51.695922211096246],[4.874160879265544,51.6959162375692]]]}},{"type":"Feature","properties":{"fid":33,"marktkraamnummer":17,"factuurnummer":"60","huurder_naam":"SP","branche":"Vereniging of stichting","heeft_eten":0,"bakwijze":"Niet van toepassing","sponsor":0,"vereniging":1,"bijzonderheden":null,"Vak":"HO","Grondplaats/Kraam":"K"},"geometry":{"type":"Polygon","coordinates":[[[4.87422275286323,51.69595346183463],[4.8742657931355,51.69597748826739],[4.87425589414971,51.695984041838784],[4.874213710971644,51.69595943536642],[4.87422275286323,51.69595346183463]]]}},{"type":"Feature","properties":{"fid":34,"marktkraamnummer":16,"factuurnummer":"157","huurder_naam":"Shoeby","branche":"Kleding en mode","heeft_eten":0,"bakwijze":"Niet van toepassing","sponsor":0,"vereniging":0,"bijzonderheden":null,"Vak":"HO","Grondplaats/Kraam":"K"},"geometry":{"type":"Polygon","coordinates":[[[4.874324713966838,51.69600141966197],[4.874408481259235,51.6960494806061],[4.874401934794769,51.69605528718554],[4.874315672079085,51.69600739320158],[4.874324713966838,51.69600141966197]]]}},{"type":"Feature","properties":{"fid":35,"marktkraamnummer":1,"factuurnummer":"66","huurder_naam":"Goudfashion store","branche":"Kleding en mode","heeft_eten":0,"bakwijze":"Niet van toepassing","sponsor":0,"vereniging":0,"bijzonderheden":null,"Vak":"HO","Grondplaats/Kraam":"G"},"geometry":{"type":"Polygon","coordinates":[[[4.874320588202893,51.69605956708969],[4.8744043555983705,51.69610762803667],[4.874397809124937,51.69611343461584],[4.874311546302943,51.696065540628986],[4.874320588202893,51.69605956708969]]]}},{"type":"Feature","properties":{"fid":36,"marktkraamnummer":4,"factuurnummer":"113","huurder_naam":"Jolly-Bijou.com","branche":"Sieraden en accessoires","heeft_eten":0,"bakwijze":"Niet van toepassing","sponsor":0,"vereniging":0,"bijzonderheden":null,"Vak":"HO","Grondplaats/Kraam":"K"},"geometry":{"type":"Polygon","coordinates":[[[4.874116178740984,51.69595137942236],[4.874159218954529,51.69597540589422],[4.8741493199537835,51.695981959456624],[4.874107136835771,51.69595735294591],[4.874116178740984,51.69595137942236]]]}},{"type":"Feature","properties":{"fid":37,"marktkraamnummer":2,"factuurnummer":"77","huurder_naam":"Curve rebels","branche":"Kleding en mode","heeft_eten":0,"bakwijze":"Niet van toepassing","sponsor":0,"vereniging":0,"bijzonderheden":null,"Vak":"HO","Grondplaats/Kraam":"G"},"geometry":{"type":"Polygon","coordinates":[[[4.8742660522029775,51.696032821116106],[4.874309092573677,51.696056847532915],[4.874299193576739,51.69606340110793],[4.874257010301199,51.69603879465119],[4.8742660522029775,51.696032821116106]]]}},{"type":"Feature","properties":{"fid":38,"marktkraamnummer":3,"factuurnummer":"87","huurder_naam":"The Favorite Club","branche":"Sieraden en accessoires","heeft_eten":0,"bakwijze":"Niet van toepassing","sponsor":0,"vereniging":0,"bijzonderheden":null,"Vak":"HO","Grondplaats/Kraam":"K"},"geometry":{"type":"Polygon","coordinates":[[[4.874194532976516,51.69599642381341],[4.874237573274564,51.696020450256476],[4.874227674275267,51.696027003825485],[4.874185491072602,51.69600239734298],[4.874194532976516,51.69599642381341]]]}},{"type":"Feature","properties":{"fid":39,"marktkraamnummer":5,"factuurnummer":"155","huurder_naam":"Mexicaanse taco, bamboe sokken en suikerspin","branche":"Eten en drinken","heeft_eten":1,"bakwijze":"Niet van toepassing","sponsor":0,"vereniging":0,"bijzonderheden":null,"Vak":"HO","Grondplaats/Kraam":"K"},"geometry":{"type":"Polygon","coordinates":[[[4.874057603858452,51.69591988584974],[4.874100644010895,51.695943912343104],[4.874090745008585,51.69595046590056],[4.874048561951828,51.695925859368785],[4.874057603858452,51.69591988584974]]]}},{"type":"Feature","properties":{"fid":40,"marktkraamnummer":6,"factuurnummer":"155","huurder_naam":"Mexicaanse taco, bamboe sokken en suikerspin","branche":"Eten en drinken","heeft_eten":1,"bakwijze":"Niet van toepassing","sponsor":0,"vereniging":0,"bijzonderheden":null,"Vak":"HO","Grondplaats/Kraam":"G"},"geometry":{"type":"Polygon","coordinates":[[[4.874009359949148,51.69588260000596],[4.87404555994054,51.69591064623594],[4.874034081679172,51.69591611535604],[4.873998878814193,51.69588758314963],[4.874009359949148,51.69588260000596]]]}},{"type":"Feature","properties":{"fid":41,"marktkraamnummer":7,"factuurnummer":"47","huurder_naam":"Energetixshop by AB-Wellness","branche":"Verzorging en gezondheid","heeft_eten":0,"bakwijze":"Niet van toepassing","sponsor":0,"vereniging":0,"bijzonderheden":null,"Vak":"HO","Grondplaats/Kraam":"K"},"geometry":{"type":"Polygon","coordinates":[[[4.873978088877247,51.69587612755747],[4.873942034615419,51.69584800894004],[4.873953541178463,51.69584256284952],[4.87398859580426,51.695871165436365],[4.873978088877247,51.69587612755747]]]}},{"type":"Feature","properties":{"fid":42,"marktkraamnummer":8,"factuurnummer":"84","huurder_naam":"Smokestag","branche":"Eten en drinken","heeft_eten":1,"bakwijze":"Kolen","sponsor":0,"vereniging":0,"bijzonderheden":null,"Vak":"HO","Grondplaats/Kraam":"G"},"geometry":{"type":"Polygon","coordinates":[[[4.873885789500555,51.69587616979223],[4.873792661559738,51.69591983841389],[4.873784867572387,51.6959120979505],[4.873878091927185,51.695869508454216],[4.873885789500555,51.69587616979223]]]}},{"type":"Feature","properties":{"fid":43,"marktkraamnummer":9,"factuurnummer":"78","huurder_naam":"MeatCuisine BV.","branche":"Eten en drinken","heeft_eten":1,"bakwijze":"Niet van toepassing","sponsor":0,"vereniging":0,"bijzonderheden":null,"Vak":"HO","Grondplaats/Kraam":"K"},"geometry":{"type":"Polygon","coordinates":[[[4.873803799990125,51.69573156588031],[4.873767745951761,51.69570344720914],[4.873779252498894,51.695698001135625],[4.873814306902564,51.695726603774744],[4.873803799990125,51.69573156588031]]]}},{"type":"Feature","properties":{"fid":44,"marktkraamnummer":10,"factuurnummer":"14","huurder_naam":"Sans fashion","branche":"Kleding en mode","heeft_eten":0,"bakwijze":"Niet van toepassing","sponsor":0,"vereniging":0,"bijzonderheden":null,"Vak":"HO","Grondplaats/Kraam":"K"},"geometry":{"type":"Polygon","coordinates":[[[4.87375574093552,51.695689885419064],[4.87371968696022,51.695661766733046],[4.873731193502502,51.69565632066421],[4.8737662478435215,51.69568492331781],[4.87375574093552,51.695689885419064]]]}},{"type":"Feature","properties":{"fid":45,"marktkraamnummer":11,"factuurnummer":"14","huurder_naam":"Sans fashion","branche":"Kleding en mode","heeft_eten":0,"bakwijze":"Niet van toepassing","sponsor":0,"vereniging":0,"bijzonderheden":null,"Vak":"HO","Grondplaats/Kraam":"K"},"geometry":{"type":"Polygon","coordinates":[[[4.873713662594665,51.69565577112312],[4.873677608672687,51.695627652424115],[4.873689115211329,51.69562220635942],[4.8737241694993285,51.69565080902558],[4.873713662594665,51.69565577112312]]]}},{"type":"Feature","properties":{"fid":46,"marktkraamnummer":12,"factuurnummer":"33","huurder_naam":"Hip bij Yvonne","branche":"Sieraden en accessoires","heeft_eten":0,"bakwijze":"Niet van toepassing","sponsor":0,"vereniging":0,"bijzonderheden":null,"Vak":"HO","Grondplaats/Kraam":"K"},"geometry":{"type":"Polygon","coordinates":[[[4.873670791070349,51.69561519050215],[4.87363473720733,51.69558707178991],[4.873646243740779,51.695581625729396],[4.873681297970261,51.69561022840845],[4.873670791070349,51.69561519050215]]]}},{"type":"Feature","properties":{"fid":47,"marktkraamnummer":13,"factuurnummer":"33","huurder_naam":"Hip bij Yvonne","branche":"Sieraden en accessoires","heeft_eten":0,"bakwijze":"Niet van toepassing","sponsor":0,"vereniging":0,"bijzonderheden":null,"Vak":"HO","Grondplaats/Kraam":"K"},"geometry":{"type":"Polygon","coordinates":[[[4.87363391245127,51.69558109896942],[4.873597858638316,51.6955529802458],[4.873609365167506,51.69554753418888],[4.873644419347283,51.69557613687902],[4.87363391245127,51.69558109896942]]]}},{"type":"Feature","properties":{"fid":48,"marktkraamnummer":14,"factuurnummer":"115","huurder_naam":"Van der Plaat","branche":"Speelgoed en kinderen","heeft_eten":0,"bakwijze":"Niet van toepassing","sponsor":0,"vereniging":0,"bijzonderheden":null,"Vak":"HO","Grondplaats/Kraam":"K"},"geometry":{"type":"Polygon","coordinates":[[[4.87358678144658,51.69553403681156],[4.873550727700391,51.69550591807338],[4.8735622342232485,51.69550047202106],[4.873597288336798,51.69552907472534],[4.87358678144658,51.69553403681156]]]}},{"type":"Feature","properties":{"fid":49,"marktkraamnummer":2,"factuurnummer":"50","huurder_naam":"Electro World Thijssen","branche":"Overig","heeft_eten":0,"bakwijze":"Geen bereiding op locatie","sponsor":0,"vereniging":0,"bijzonderheden":null,"Vak":"PB","Grondplaats/Kraam":"K"},"geometry":{"type":"Polygon","coordinates":[[[4.875098014569726,51.69483856573172],[4.875145014699903,51.6948176006905],[4.875136580844783,51.69481029857656],[4.875089580718309,51.694831263614425],[4.875098014569726,51.69483856573172]]]}},{"type":"Feature","properties":{"fid":50,"marktkraamnummer":3,"factuurnummer":"24","huurder_naam":"Huisvoldeco / Anjas-Personal-Gifts","branche":"Wonen en decoratie","heeft_eten":0,"bakwijze":"Geen bereiding op locatie","sponsor":0,"vereniging":0,"bijzonderheden":null,"Vak":"PB","Grondplaats/Kraam":"K"},"geometry":{"type":"Polygon","coordinates":[[[4.8748662173470425,51.69502011919575],[4.87487526383997,51.694984607780704],[4.874860978194404,51.69498320228896],[4.874851931690549,51.69501871370292],[4.8748662173470425,51.69502011919575]]]}},{"type":"Feature","properties":{"fid":51,"marktkraamnummer":4,"factuurnummer":"59","huurder_naam":"The Company lifestyle","branche":"Wonen en decoratie","heeft_eten":0,"bakwijze":"Geen bereiding op locatie","sponsor":0,"vereniging":0,"bijzonderheden":null,"Vak":"PB","Grondplaats/Kraam":"K"},"geometry":{"type":"Polygon","coordinates":[[[4.874844720564448,51.695066238968806],[4.874853767083596,51.69503072755559],[4.874839481424145,51.69502932206123],[4.87483043489407,51.69506483347336],[4.874844720564448,51.695066238968806]]]}},{"type":"Feature","properties":{"fid":52,"marktkraamnummer":5,"factuurnummer":"94","huurder_naam":"Samia Fashion","branche":"Kleding en mode","heeft_eten":0,"bakwijze":"Geen bereiding op locatie","sponsor":0,"vereniging":0,"bijzonderheden":null,"Vak":"PB","Grondplaats/Kraam":"G"},"geometry":{"type":"Polygon","coordinates":[[[4.874814132381236,51.69518769637941],[4.87483985004614,51.69508102786752],[4.874825564371248,51.69507962237148],[4.87479857347934,51.69518617117987],[4.874814132381236,51.69518769637941]]]}},{"type":"Feature","properties":{"fid":53,"marktkraamnummer":6,"factuurnummer":"82","huurder_naam":"aidsweeskinderen","branche":"Vereniging of stichting","heeft_eten":0,"bakwijze":"Geen bereiding op locatie","sponsor":0,"vereniging":1,"bijzonderheden":null,"Vak":"PB","Grondplaats/Kraam":"K"},"geometry":{"type":"Polygon","coordinates":[[[4.874797860379031,51.695247334255356],[4.874806906971674,51.6952118228465],[4.874792621256521,51.69521041734638],[4.87478357465295,51.69524592875412],[4.874797860379031,51.695247334255356]]]}},{"type":"Feature","properties":{"fid":54,"marktkraamnummer":7,"factuurnummer":"82","huurder_naam":"aidsweeskinderen","branche":"Vereniging of stichting","heeft_eten":0,"bakwijze":"Geen bereiding op locatie","sponsor":0,"vereniging":1,"bijzonderheden":null,"Vak":"PB","Grondplaats/Kraam":"K"},"geometry":{"type":"Polygon","coordinates":[[[4.874786897187201,51.69528935269796],[4.874795943796969,51.69525384129011],[4.874781658068894,51.695252435788646],[4.8747726114482,51.69528794719535],[4.874786897187201,51.69528935269796]]]}},{"type":"Feature","properties":{"fid":55,"marktkraamnummer":8,"factuurnummer":"","huurder_naam":"Villa LanterFant","branche":"Vereniging of stichting","heeft_eten":0,"bakwijze":"Geen bereiding op locatie","sponsor":0,"vereniging":1,"bijzonderheden":null,"Vak":"PB","Grondplaats/Kraam":"K"},"geometry":{"type":"Polygon","coordinates":[[[4.87476312443986,51.695368049143696],[4.874772171084245,51.69533253773807],[4.87475788533207,51.695331132233655],[4.87474883867676,51.695366643638195],[4.87476312443986,51.695368049143696]]]}},{"type":"Feature","properties":{"fid":56,"marktkraamnummer":9,"factuurnummer":"70","huurder_naam":"Fleurig en Mooi / Liefs Maartje","branche":"Bloemen en planten","heeft_eten":0,"bakwijze":"Geen bereiding op locatie","sponsor":0,"vereniging":0,"bijzonderheden":null,"Vak":"PB","Grondplaats/Kraam":"K"},"geometry":{"type":"Polygon","coordinates":[[[4.874751147444667,51.695415395507915],[4.874760194108049,51.69537988410335],[4.874745908341304,51.69537847859748],[4.874736861666997,51.69541399000093],[4.874751147444667,51.695415395507915]]]}},{"type":"Feature","properties":{"fid":57,"marktkraamnummer":10,"factuurnummer":"93","huurder_naam":"Bij Tries Thuis","branche":"Wonen en decoratie","heeft_eten":0,"bakwijze":"Geen bereiding op locatie","sponsor":0,"vereniging":0,"bijzonderheden":null,"Vak":"PB","Grondplaats/Kraam":"K"},"geometry":{"type":"Polygon","coordinates":[[[4.87473821036465,51.69546333015542],[4.874747257047903,51.695427818752044],[4.8747329712664325,51.695426413244626],[4.874723924572252,51.695461924646885],[4.87473821036465,51.69546333015542]]]}},{"type":"Feature","properties":{"fid":58,"marktkraamnummer":11,"factuurnummer":"93","huurder_naam":"Bij Tries Thuis","branche":"Wonen en decoratie","heeft_eten":0,"bakwijze":"Geen bereiding op locatie","sponsor":0,"vereniging":0,"bijzonderheden":null,"Vak":"PB","Grondplaats/Kraam":"K"},"geometry":{"type":"Polygon","coordinates":[[[4.874726260160769,51.69550830669629],[4.8747353068625205,51.69547279529406],[4.874721021067226,51.69547138978511],[4.874711974354547,51.69550690118627],[4.874726260160769,51.69550830669629]]]}},{"type":"Feature","properties":{"fid":59,"marktkraamnummer":12,"factuurnummer":"65","huurder_naam":"Baby garage","branche":"Speelgoed en kinderen","heeft_eten":0,"bakwijze":"Geen bereiding op locatie","sponsor":0,"vereniging":0,"bijzonderheden":null,"Vak":"PB","Grondplaats/Kraam":"K"},"geometry":{"type":"Polygon","coordinates":[[[4.87471432335478,51.695552098325614],[4.87472337007478,51.69551658692448],[4.874709084266034,51.695515181414095],[4.874700037535106,51.69555069281411],[4.87471432335478,51.695552098325614]]]}},{"type":"Feature","properties":{"fid":60,"marktkraamnummer":13,"factuurnummer":"65","huurder_naam":"Baby garage","branche":"Speelgoed en kinderen","heeft_eten":0,"bakwijze":"Geen bereiding op locatie","sponsor":0,"vereniging":0,"bijzonderheden":null,"Vak":"PB","Grondplaats/Kraam":"K"},"geometry":{"type":"Polygon","coordinates":[[[4.874702373103393,51.69559707486359],[4.874711419841894,51.69556156346358],[4.87469713401932,51.69556015795173],[4.874688087269894,51.69559566935064],[4.874702373103393,51.69559707486359]]]}},{"type":"Feature","properties":{"fid":61,"marktkraamnummer":14,"factuurnummer":"103","huurder_naam":"Kaik oep 't Fer","branche":"Overig","heeft_eten":0,"bakwijze":"Geen bereiding op locatie","sponsor":0,"vereniging":0,"bijzonderheden":null,"Vak":"PB","Grondplaats/Kraam":"K"},"geometry":{"type":"Polygon","coordinates":[[[4.874688462432437,51.69564678269917],[4.8746975091919325,51.69561127130045],[4.874683223354104,51.695609865786835],[4.874674176583683,51.6956453771845],[4.874688462432437,51.69564678269917]]]}},{"type":"Feature","properties":{"fid":62,"marktkraamnummer":15,"factuurnummer":"55","huurder_naam":"Droomhoesjes","branche":"Overig","heeft_eten":0,"bakwijze":"Geen bereiding op locatie","sponsor":0,"vereniging":0,"bijzonderheden":null,"Vak":"PB","Grondplaats/Kraam":"G"},"geometry":{"type":"Polygon","coordinates":[[[4.8746475785001735,51.69579442548835],[4.874684545153075,51.69566157576109],[4.874670259299771,51.69566017024595],[4.874634394466905,51.695793139542495],[4.8746475785001735,51.69579442548835]]]}},{"type":"Feature","properties":{"fid":63,"marktkraamnummer":16,"factuurnummer":"46","huurder_naam":"ERA","branche":"Overig","heeft_eten":0,"bakwijze":"Geen bereiding op locatie","sponsor":0,"vereniging":0,"bijzonderheden":null,"Vak":"PB","Grondplaats/Kraam":"K"},"geometry":{"type":"Polygon","coordinates":[[[4.874635686224191,51.69584503408039],[4.874644733065305,51.69580952268655],[4.874630447166542,51.69580811716648],[4.874621400314501,51.695843628559224],[4.874635686224191,51.69584503408039]]]}},{"type":"Feature","properties":{"fid":64,"marktkraamnummer":17,"factuurnummer":"46","huurder_naam":"Vis&Wildrokerij Kloet","branche":"Eten en drinken","heeft_eten":1,"bakwijze":"Hout","sponsor":0,"vereniging":0,"bijzonderheden":null,"Vak":"PB","Grondplaats/Kraam":"K"},"geometry":{"type":"Polygon","coordinates":[[[4.874620848893444,51.69589236791528],[4.874629895755802,51.69585685652274],[4.874615609842561,51.69585545100089],[4.874606562969276,51.69589096239226],[4.874620848893444,51.69589236791528]]]}},{"type":"Feature","properties":{"fid":65,"marktkraamnummer":18,"factuurnummer":"46","huurder_naam":"Ahmad Almasri","branche":"Eten en drinken","heeft_eten":1,"bakwijze":"Niet van toepassing","sponsor":0,"vereniging":0,"bijzonderheden":null,"Vak":"PB","Grondplaats/Kraam":"G"},"geometry":{"type":"Polygon","coordinates":[[[4.874599116506012,51.6959592235641],[4.87460816339898,51.69592371217356],[4.874593877465314,51.695922306649045],[4.87458483056142,51.69595781803847],[4.874599116506012,51.6959592235641]]]}},{"type":"Feature","properties":{"fid":66,"marktkraamnummer":19,"factuurnummer":"13","huurder_naam":"Cookies Delight (Maxime)","branche":"Eten en drinken","heeft_eten":1,"bakwijze":"Elektrisch","sponsor":0,"vereniging":0,"bijzonderheden":null,"Vak":"PB","Grondplaats/Kraam":"G"},"geometry":{"type":"Polygon","coordinates":[[[4.8745700944393935,51.69603901823322],[4.87458658536883,51.69597694135437],[4.874572299419034,51.69597553582714],[4.874557257883114,51.696037753906516],[4.8745700944393935,51.69603901823322]]]}},{"type":"Feature","properties":{"fid":67,"marktkraamnummer":20,"factuurnummer":"149","huurder_naam":"CV De Faant","branche":"Vereniging of stichting","heeft_eten":0,"bakwijze":"Geen bereiding op locatie","sponsor":0,"vereniging":1,"bijzonderheden":null,"Vak":"PB","Grondplaats/Kraam":"K"},"geometry":{"type":"Polygon","coordinates":[[[4.8745447147658965,51.69613258344383],[4.874553761736716,51.69609707205819],[4.8745394757500256,51.69609566652696],[4.874530428768278,51.69613117791147],[4.8745447147658965,51.69613258344383]]]}}]}